start=new Date('2021-10-20T00:00:00.000Z').valueOf();
sats=[{"ELEMENT_SET_NO":"999","BSTAR":"-0.00001760800000","ECCENTRICITY":"0.00013020","DECAY_DATE":null,"TLE_LINE2":"2 46328  53.0552 349.0971 0001302  95.0006 265.1132 15.06415784 63273","ARG_OF_PERICENTER":"95.0006","REV_AT_EPOCH":"6327","CENTER_NAME":"EARTH","PERIAPSIS":"546.264","EPOCH":"2021-10-19T12:10:30.944640","OBJECT_TYPE":"PAYLOAD","COUNTRY_CODE":"US","OBJECT_ID":"2020-062D","MEAN_ANOMALY":"265.1132","MEAN_MOTION_DDOT":"0.0000000000000","REF_FRAME":"TEME","SEMIMAJOR_AXIS":"6925.300","MEAN_MOTION_DOT":"-0.00000544","RCS_SIZE":"LARGE","PERIOD":"95.591","OBJECT_NAME":"STARLINK-1686","TIME_SYSTEM":"UTC","APOAPSIS":"548.067","MEAN_ELEMENT_THEORY":"SGP4","RA_OF_ASC_NODE":"349.0971","CLASSIFICATION_TYPE":"U","SITE":"AFETR","NORAD_CAT_ID":"46328","GP_ID":"187578588","EPHEMERIS_TYPE":"0","LAUNCH_DATE":"2020-09-03","INCLINATION":"53.0552","MEAN_MOTION":"15.06415784","FILE":"3171350","TLE_LINE1":"1 46328U 20062D   21292.50730260 -.00000544  00000-0 -17608-4 0  9993"},{"EPHEMERIS_TYPE":"0","LAUNCH_DATE":"2020-09-03","GP_ID":"187579432","NORAD_CAT_ID":"46329","TLE_LINE1":"1 46329U 20062E   21292.40779928  .00002200  00000-0  16651-3 0  9992","INCLINATION":"53.0558","MEAN_MOTION":"15.06409599","FILE":"3171379","OBJECT_NAME":"STARLINK-1695","TIME_SYSTEM":"UTC","SEMIMAJOR_AXIS":"6925.319","RCS_SIZE":"LARGE","MEAN_MOTION_DOT":"0.00002200","PERIOD":"95.592","MEAN_ELEMENT_THEORY":"SGP4","RA_OF_ASC_NODE":"349.5374","CLASSIFICATION_TYPE":"U","SITE":"AFETR","APOAPSIS":"548.045","COUNTRY_CODE":"US","OBJECT_ID":"2020-062E","EPOCH":"2021-10-19T09:47:13.857792","OBJECT_TYPE":"PAYLOAD","REF_FRAME":"TEME","MEAN_MOTION_DDOT":"0.0000000000000","MEAN_ANOMALY":"275.9236","ARG_OF_PERICENTER":"84.1895","ELEMENT_SET_NO":"999","BSTAR":"0.00016651000000","ECCENTRICITY":"0.00012430","DECAY_DATE":null,"TLE_LINE2":"2 46329  53.0558 349.5374 0001243  84.1895 275.9236 15.06409599 63261","PERIAPSIS":"546.323","REV_AT_EPOCH":"6326","CENTER_NAME":"EARTH"},{"EPOCH":"2021-10-19T15:53:26.437056","OBJECT_TYPE":"PAYLOAD","COUNTRY_CODE":"US","OBJECT_ID":"2020-062F","MEAN_ANOMALY":"267.2101","MEAN_MOTION_DDOT":"0.0000000000000","REF_FRAME":"TEME","ELEMENT_SET_NO":"999","BSTAR":"0.00007782200000","ECCENTRICITY":"0.00011090","DECAY_DATE":null,"TLE_LINE2":"2 46330  53.0549 348.4027 0001109  92.9015 267.2101 15.06406565 63139","ARG_OF_PERICENTER":"92.9015","REV_AT_EPOCH":"6313","CENTER_NAME":"EARTH","PERIAPSIS":"546.425","GP_ID":"187631298","NORAD_CAT_ID":"46330","EPHEMERIS_TYPE":"0","LAUNCH_DATE":"2020-09-03","INCLINATION":"53.0549","MEAN_MOTION":"15.06406565","FILE":"3172644","TLE_LINE1":"1 46330U 20062F   21292.66211154  .00000878  00000-0  77822-4 0  9991","SEMIMAJOR_AXIS":"6925.328","MEAN_MOTION_DOT":"0.00000878","RCS_SIZE":"LARGE","PERIOD":"95.592","OBJECT_NAME":"STARLINK-1710","TIME_SYSTEM":"UTC","APOAPSIS":"547.961","MEAN_ELEMENT_THEORY":"SGP4","CLASSIFICATION_TYPE":"U","RA_OF_ASC_NODE":"348.4027","SITE":"AFETR"},{"PERIAPSIS":"546.323","REV_AT_EPOCH":"6285","CENTER_NAME":"EARTH","ARG_OF_PERICENTER":"89.1480","ELEMENT_SET_NO":"999","BSTAR":"0.00003493000000","ECCENTRICITY":"0.00012580","DECAY_DATE":null,"TLE_LINE2":"2 46331  53.0564   8.2510 0001258  89.1480 270.9653 15.06406299 62859","REF_FRAME":"TEME","MEAN_MOTION_DDOT":"0.0000000000000","MEAN_ANOMALY":"270.9653","COUNTRY_CODE":"US","OBJECT_ID":"2020-062G","EPOCH":"2021-10-19T16:43:51.387456","OBJECT_TYPE":"PAYLOAD","MEAN_ELEMENT_THEORY":"SGP4","CLASSIFICATION_TYPE":"U","RA_OF_ASC_NODE":"8.2510","SITE":"AFETR","APOAPSIS":"548.065","OBJECT_NAME":"STARLINK-1719","TIME_SYSTEM":"UTC","SEMIMAJOR_AXIS":"6925.329","MEAN_MOTION_DOT":"0.00000239","RCS_SIZE":"LARGE","PERIOD":"95.592","TLE_LINE1":"1 46331U 20062G   21292.69712254  .00000239  00000-0  34930-4 0  9996","INCLINATION":"53.0564","MEAN_MOTION":"15.06406299","FILE":"3172644","EPHEMERIS_TYPE":"0","LAUNCH_DATE":"2020-09-03","GP_ID":"187631543","NORAD_CAT_ID":"46331"},{"REF_FRAME":"TEME","MEAN_MOTION_DDOT":"0.0000000000000","MEAN_ANOMALY":"259.7898","OBJECT_ID":"2020-062H","COUNTRY_CODE":"US","OBJECT_TYPE":"PAYLOAD","EPOCH":"2021-10-19T12:13:09.656256","PERIAPSIS":"546.244","CENTER_NAME":"EARTH","REV_AT_EPOCH":"6300","ARG_OF_PERICENTER":"100.3249","DECAY_DATE":null,"TLE_LINE2":"2 46332  53.0547   9.0873 0001394 100.3249 259.7898 15.06401407 63002","ELEMENT_SET_NO":"999","ECCENTRICITY":"0.00013940","BSTAR":"0.00016534000000","TLE_LINE1":"1 46332U 20062H   21292.50913954  .00002182  00000-0  16534-3 0  9995","INCLINATION":"53.0547","FILE":"3171409","MEAN_MOTION":"15.06401407","EPHEMERIS_TYPE":"0","LAUNCH_DATE":"2020-09-03","NORAD_CAT_ID":"46332","GP_ID":"187580230","CLASSIFICATION_TYPE":"U","RA_OF_ASC_NODE":"9.0873","SITE":"AFETR","MEAN_ELEMENT_THEORY":"SGP4","APOAPSIS":"548.175","TIME_SYSTEM":"UTC","OBJECT_NAME":"STARLINK-1721","PERIOD":"95.592","SEMIMAJOR_AXIS":"6925.344","MEAN_MOTION_DOT":"0.00002182","RCS_SIZE":"LARGE"},{"SEMIMAJOR_AXIS":"6925.341","MEAN_MOTION_DOT":"-0.00000002","RCS_SIZE":"LARGE","PERIOD":"95.592","OBJECT_NAME":"STARLINK-1723","TIME_SYSTEM":"UTC","APOAPSIS":"548.003","MEAN_ELEMENT_THEORY":"SGP4","CLASSIFICATION_TYPE":"U","RA_OF_ASC_NODE":"9.0294","SITE":"AFETR","GP_ID":"187580775","NORAD_CAT_ID":"46333","EPHEMERIS_TYPE":"0","LAUNCH_DATE":"2020-09-03","INCLINATION":"53.0557","FILE":"3171412","MEAN_MOTION":"15.06402518","TLE_LINE1":"1 46333U 20062J   21292.52389110 -.00000002  00000-0  18763-4 0  9996","ELEMENT_SET_NO":"999","BSTAR":"0.00001876300000","ECCENTRICITY":"0.00011510","DECAY_DATE":null,"TLE_LINE2":"2 46333  53.0557   9.0294 0001151  73.7263 286.3852 15.06402518 63001","ARG_OF_PERICENTER":"73.7263","REV_AT_EPOCH":"6300","CENTER_NAME":"EARTH","PERIAPSIS":"546.409","EPOCH":"2021-10-19T12:34:24.191040","OBJECT_TYPE":"PAYLOAD","COUNTRY_CODE":"US","OBJECT_ID":"2020-062J","MEAN_MOTION_DDOT":"0.0000000000000","MEAN_ANOMALY":"286.3852","REF_FRAME":"TEME"},{"INCLINATION":"53.0547","MEAN_MOTION":"15.06414268","FILE":"3172644","TLE_LINE1":"1 46334U 20062K   21292.63167506  .00001007  00000-0  86477-4 0  9994","NORAD_CAT_ID":"46334","GP_ID":"187630799","EPHEMERIS_TYPE":"0","LAUNCH_DATE":"2020-09-03","APOAPSIS":"548.029","MEAN_ELEMENT_THEORY":"SGP4","CLASSIFICATION_TYPE":"U","RA_OF_ASC_NODE":"348.5330","SITE":"AFETR","SEMIMAJOR_AXIS":"6925.305","RCS_SIZE":"LARGE","MEAN_MOTION_DOT":"0.00001007","PERIOD":"95.591","OBJECT_NAME":"STARLINK-1725","TIME_SYSTEM":"UTC","MEAN_ANOMALY":"256.4321","MEAN_MOTION_DDOT":"0.0000000000000","REF_FRAME":"TEME","EPOCH":"2021-10-19T15:09:36.725184","OBJECT_TYPE":"PAYLOAD","COUNTRY_CODE":"US","OBJECT_ID":"2020-062K","REV_AT_EPOCH":"6312","CENTER_NAME":"EARTH","PERIAPSIS":"546.311","ELEMENT_SET_NO":"999","ECCENTRICITY":"0.00012400","BSTAR":"0.00008647700000","DECAY_DATE":null,"TLE_LINE2":"2 46334  53.0547 348.5330 0001240 103.6806 256.4321 15.06414268 63125","ARG_OF_PERICENTER":"103.6806"},{"REF_FRAME":"TEME","MEAN_ANOMALY":"282.2573","MEAN_MOTION_DDOT":"0.0000000000000","OBJECT_ID":"2020-062L","COUNTRY_CODE":"US","OBJECT_TYPE":"PAYLOAD","EPOCH":"2021-10-19T16:27:56.702016","PERIAPSIS":"546.373","CENTER_NAME":"EARTH","REV_AT_EPOCH":"6285","ARG_OF_PERICENTER":"77.8551","DECAY_DATE":null,"TLE_LINE2":"2 46335  53.0546   8.2912 0001208  77.8551 282.2573 15.06401456 62854","ELEMENT_SET_NO":"999","BSTAR":"-0.00004147900000","ECCENTRICITY":"0.00012080","TLE_LINE1":"1 46335U 20062L   21292.68607294 -.00000899  00000-0 -41479-4 0  9996","INCLINATION":"53.0546","MEAN_MOTION":"15.06401456","FILE":"3172644","EPHEMERIS_TYPE":"0","LAUNCH_DATE":"2020-09-03","NORAD_CAT_ID":"46335","GP_ID":"187631044","RA_OF_ASC_NODE":"8.2912","CLASSIFICATION_TYPE":"U","SITE":"AFETR","MEAN_ELEMENT_THEORY":"SGP4","APOAPSIS":"548.046","TIME_SYSTEM":"UTC","OBJECT_NAME":"STARLINK-1727","PERIOD":"95.592","SEMIMAJOR_AXIS":"6925.344","RCS_SIZE":"LARGE","MEAN_MOTION_DOT":"-0.00000899"},{"INCLINATION":"53.0559","MEAN_MOTION":"15.06424852","FILE":"3171120","TLE_LINE1":"1 46336U 20062M   21292.41145828 -.00001603  00000-0 -88697-4 0  9995","NORAD_CAT_ID":"46336","GP_ID":"187571753","EPHEMERIS_TYPE":"0","LAUNCH_DATE":"2020-09-03","APOAPSIS":"547.993","MEAN_ELEMENT_THEORY":"SGP4","RA_OF_ASC_NODE":"349.5321","CLASSIFICATION_TYPE":"U","SITE":"AFETR","SEMIMAJOR_AXIS":"6925.272","RCS_SIZE":"LARGE","MEAN_MOTION_DOT":"-0.00001603","PERIOD":"95.591","OBJECT_NAME":"STARLINK-1738","TIME_SYSTEM":"UTC","MEAN_MOTION_DDOT":"0.0000000000000","MEAN_ANOMALY":"285.7403","REF_FRAME":"TEME","EPOCH":"2021-10-19T09:52:29.995392","OBJECT_TYPE":"PAYLOAD","COUNTRY_CODE":"US","OBJECT_ID":"2020-062M","REV_AT_EPOCH":"6308","CENTER_NAME":"EARTH","PERIAPSIS":"546.282","ELEMENT_SET_NO":"999","BSTAR":"-0.00008869700000","ECCENTRICITY":"0.00012350","DECAY_DATE":null,"TLE_LINE2":"2 46336  53.0559 349.5321 0001235  74.3722 285.7403 15.06424852 63087","ARG_OF_PERICENTER":"74.3722"},{"OBJECT_ID":"2020-062N","COUNTRY_CODE":"US","OBJECT_TYPE":"PAYLOAD","EPOCH":"2021-10-19T15:00:22.326624","REF_FRAME":"TEME","MEAN_ANOMALY":"279.4869","MEAN_MOTION_DDOT":"0.0000000000000","ARG_OF_PERICENTER":"80.6261","DECAY_DATE":null,"TLE_LINE2":"2 46337  53.0539 348.5654 0001244  80.6261 279.4869 15.06410747 63121","ELEMENT_SET_NO":"999","ECCENTRICITY":"0.00012440","BSTAR":"0.00013814000000","PERIAPSIS":"546.319","CENTER_NAME":"EARTH","REV_AT_EPOCH":"6312","EPHEMERIS_TYPE":"0","LAUNCH_DATE":"2020-09-03","GP_ID":"187630047","NORAD_CAT_ID":"46337","TLE_LINE1":"1 46337U 20062N   21292.62525841  .00001777  00000-0  13814-3 0  9994","INCLINATION":"53.0539","FILE":"3172644","MEAN_MOTION":"15.06410747","TIME_SYSTEM":"UTC","OBJECT_NAME":"STARLINK-1750","PERIOD":"95.591","SEMIMAJOR_AXIS":"6925.316","MEAN_MOTION_DOT":"0.00001777","RCS_SIZE":"LARGE","RA_OF_ASC_NODE":"348.5654","CLASSIFICATION_TYPE":"U","SITE":"AFETR","MEAN_ELEMENT_THEORY":"SGP4","APOAPSIS":"548.042"}];
